CCSDS_OEM_VERS = 1.0
CREATION_DATE  = 2017-05-11T10:59:27
ORIGINATOR     = GMAT USER

META_START
OBJECT_NAME          = MOPSSat_alt_35785_km_RAAN_0_050
OBJECT_ID            = SatId
CENTER_NAME          = Earth
REF_FRAME            = EME2000
TIME_SYSTEM          = UTC
START_TIME           = 2017-01-01T00:00:00.000
USEABLE_START_TIME   = 2017-01-01T00:00:00.000
USEABLE_STOP_TIME    = 2017-01-02T00:00:00.000
STOP_TIME            = 2017-01-02T00:00:00.000
INTERPOLATION        = Lagrange
INTERPOLATION_DEGREE = 7 
META_STOP


                                                                                   

2017-01-01T15:44:10.000  -2.314758984258220e+04  -3.522182063622909e+04  -1.229013142687846e+03   2.569829341945404e+00  -1.686850342999545e+00  -5.892632223824698e-02
2017-01-01T15:44:20.000  -2.312188539660660e+04  -3.523867977411830e+04  -1.229602079152912e+03   2.571059530216073e+00  -1.684977023031519e+00  -5.886096337942317e-02
2017-01-01T15:44:30.000  -2.309616865581389e+04  -3.525552017417696e+04  -1.230190361867733e+03   2.572288351371647e+00  -1.683102807193382e+00  -5.879557324804215e-02
2017-01-01T15:44:40.000  -2.307043963413929e+04  -3.527234182728065e+04  -1.230777990513795e+03   2.573515804746489e+00  -1.681227696500504e+00  -5.873015187952989e-02
2017-01-01T15:44:50.000  -2.304469834500294e+04  -3.528914472465626e+04  -1.231364964784856e+03   2.574741889700600e+00  -1.679351691930719e+00  -5.866469930800269e-02
2017-01-01T15:45:00.000  -2.301894480189032e+04  -3.530592885750202e+04  -1.231951284373670e+03   2.575966605591885e+00  -1.677474794466622e+00  -5.859921556774295e-02
2017-01-01T15:45:10.000  -2.299317901822130e+04  -3.532269421707374e+04  -1.232536948975004e+03   2.577189951782454e+00  -1.675597005086024e+00  -5.853370069286614e-02
2017-01-01T15:45:20.000  -2.296740100768203e+04  -3.533944079446510e+04  -1.233121958277960e+03   2.578411927622585e+00  -1.673718324786148e+00  -5.846815471816497e-02
2017-01-01T15:45:30.000  -2.294161078397904e+04  -3.535616858077152e+04  -1.233706311971702e+03   2.579632532462681e+00  -1.671838754565694e+00  -5.840257767848386e-02
2017-01-01T15:45:40.000  -2.291580836083847e+04  -3.537287756708914e+04  -1.234290009745417e+03   2.580851765653196e+00  -1.669958295424795e+00  -5.833696960871707e-02
2017-01-01T15:45:50.000  -2.288999375225582e+04  -3.538956774435663e+04  -1.234873051282789e+03   2.582069626533097e+00  -1.668076948383217e+00  -5.827133054444378e-02
2017-01-01T15:46:00.000  -2.286416697216023e+04  -3.540623910356926e+04  -1.235455436269482e+03   2.583286114445474e+00  -1.666194714455884e+00  -5.820566052107447e-02
2017-01-01T15:46:10.000  -2.283832803454905e+04  -3.542289163569261e+04  -1.236037164390123e+03   2.584501228731259e+00  -1.664311594662692e+00  -5.813995957419286e-02
2017-01-01T15:46:20.000  -2.281247695289491e+04  -3.543952533204477e+04  -1.236618235341649e+03   2.585714968757101e+00  -1.662427589985301e+00  -5.807422773804879e-02
2017-01-01T15:46:30.000  -2.278661374074006e+04  -3.545614018391309e+04  -1.237198648819926e+03   2.586927333887403e+00  -1.660542701410438e+00  -5.800846504706875e-02
2017-01-01T15:46:40.000  -2.276073841154304e+04  -3.547273618265322e+04  -1.237778404523203e+03   2.588138323491555e+00  -1.658656929918731e+00  -5.794267153546655e-02
2017-01-01T15:46:50.000  -2.273485097909042e+04  -3.548931331942210e+04  -1.238357502142788e+03   2.589347936924443e+00  -1.656770276514717e+00  -5.787684723829006e-02
2017-01-01T15:47:00.000  -2.270895145715727e+04  -3.550587158539863e+04  -1.238935941370758e+03   2.590556173542558e+00  -1.654882742202091e+00  -5.781099219055789e-02
2017-01-01T15:47:10.000  -2.268303985958284e+04  -3.552241097173438e+04  -1.239513721898231e+03   2.591763032700397e+00  -1.652994327989226e+00  -5.774510642745186e-02
2017-01-01T15:47:20.000  -2.265711620025077e+04  -3.553893146956824e+04  -1.240090843415885e+03   2.592968513751530e+00  -1.651105034887731e+00  -5.767918998426658e-02
2017-01-01T15:47:30.000  -2.263118049306258e+04  -3.555543307004169e+04  -1.240667305614485e+03   2.594172616049713e+00  -1.649214863910516e+00  -5.761324289634215e-02
2017-01-01T15:47:40.000  -2.260523275192831e+04  -3.557191576430499e+04  -1.241243108185105e+03   2.595375338949347e+00  -1.647323816071114e+00  -5.754726519904033e-02
2017-01-01T15:47:50.000  -2.257927299067423e+04  -3.558837954357670e+04  -1.241818250821202e+03   2.596576681809811e+00  -1.645431892376951e+00  -5.748125692750983e-02
2017-01-01T15:48:00.000  -2.255330122310409e+04  -3.560482439910359e+04  -1.242392733217221e+03   2.597776643992545e+00  -1.643539093833814e+00  -5.741521811684219e-02
2017-01-01T15:48:10.000  -2.252731746299935e+04  -3.562125032216091e+04  -1.242966555068595e+03   2.598975224861066e+00  -1.641645421445858e+00  -5.734914880207208e-02
2017-01-01T15:48:20.000  -2.250132172405660e+04  -3.563765730409065e+04  -1.243539716073099e+03   2.600172423783759e+00  -1.639750876211063e+00  -5.728304901801858e-02
2017-01-01T15:48:30.000  -2.247531401998096e+04  -3.565404533624351e+04  -1.244112215928802e+03   2.601368240129647e+00  -1.637855459128022e+00  -5.721691879952227e-02
2017-01-01T15:48:40.000  -2.244929436449548e+04  -3.567041440997311e+04  -1.244684054333879e+03   2.602562673267967e+00  -1.635959171196639e+00  -5.715075818146940e-02
2017-01-01T15:48:50.000  -2.242326277136630e+04  -3.568676451661846e+04  -1.245255230985993e+03   2.603755722566878e+00  -1.634062013419955e+00  -5.708456719885571e-02
2017-01-01T15:49:00.000  -2.239721925442437e+04  -3.570309564749232e+04  -1.245825745581891e+03   2.604947387392637e+00  -1.632163986805736e+00  -5.701834588684179e-02
2017-01-01T15:49:10.000  -2.237116382748846e+04  -3.571940779392870e+04  -1.246395597819060e+03   2.606137667113046e+00  -1.630265092360861e+00  -5.695209428055724e-02
2017-01-01T15:49:20.000  -2.234509650470964e+04  -3.573570094706974e+04  -1.246964787388285e+03   2.607326561081904e+00  -1.628365331116424e+00  -5.688581241597659e-02
2017-01-01T15:49:30.000  -2.231901730015414e+04  -3.575197509812445e+04  -1.247533313982684e+03   2.608514068657890e+00  -1.626464704097336e+00  -5.681950032885855e-02
2017-01-01T15:49:40.000  -2.229292622795825e+04  -3.576823023827215e+04  -1.248101177294342e+03   2.609700189197513e+00  -1.624563212333618e+00  -5.675315805514010e-02
2017-01-01T15:49:50.000  -2.226682330172842e+04  -3.578446635903673e+04  -1.248668377027378e+03   2.610884922082433e+00  -1.622660856816668e+00  -5.668678562941083e-02
2017-01-01T15:50:00.000  -2.224070853513950e+04  -3.580068345191331e+04  -1.249234912884904e+03   2.612068266692200e+00  -1.620757638542877e+00  -5.662038308643443e-02
2017-01-01T15:50:10.000  -2.221458194179948e+04  -3.581688150845308e+04  -1.249800784571994e+03   2.613250222410461e+00  -1.618853558503758e+00  -5.655395046080441e-02
2017-01-01T15:50:20.000  -2.218844353558617e+04  -3.583306052005100e+04  -1.250365991788261e+03   2.614430788609463e+00  -1.616948617710492e+00  -5.648748778780040e-02
2017-01-01T15:50:30.000  -2.216229333039768e+04  -3.584922047810423e+04  -1.250930534233395e+03   2.615609964661607e+00  -1.615042817175733e+00  -5.642099510275363e-02
2017-01-01T15:50:40.000  -2.213613134015170e+04  -3.586536137401102e+04  -1.251494411607125e+03   2.616787749939379e+00  -1.613136157913569e+00  -5.635447244104514e-02
2017-01-01T15:50:50.000  -2.210995757903872e+04  -3.588148319901813e+04  -1.252057623603886e+03   2.617964143804209e+00  -1.611228640957963e+00  -5.628791983874951e-02
2017-01-01T15:51:00.000  -2.208377206118157e+04  -3.589758594442742e+04  -1.252620169920037e+03   2.619139145621545e+00  -1.609320267337951e+00  -5.622133733176941e-02
2017-01-01T15:51:10.000  -2.205757480076939e+04  -3.591366960151411e+04  -1.253182050251006e+03   2.620312754754893e+00  -1.607411038087400e+00  -5.615472495617607e-02
2017-01-01T15:51:20.000  -2.203136581146648e+04  -3.592973416188997e+04  -1.253743264303979e+03   2.621484970592312e+00  -1.605500954201926e+00  -5.608808274670608e-02
2017-01-01T15:51:30.000  -2.200514510700326e+04  -3.594577961713993e+04  -1.254303811785203e+03   2.622655792519906e+00  -1.603590016681964e+00  -5.602141073826429e-02
2017-01-01T15:51:40.000  -2.197891270104289e+04  -3.596180595890462e+04  -1.254863692402871e+03   2.623825219927844e+00  -1.601678226523048e+00  -5.595470896558444e-02
2017-01-01T15:51:50.000  -2.195266860751939e+04  -3.597781317867018e+04  -1.255422905859778e+03   2.624993252195018e+00  -1.599765584740450e+00  -5.588797746408893e-02
2017-01-01T15:52:00.000  -2.192641284038703e+04  -3.599380126792509e+04  -1.255981451858800e+03   2.626159888700490e+00  -1.597852092350918e+00  -5.582121626925179e-02
2017-01-01T15:52:10.000  -2.190014541361972e+04  -3.600977021815906e+04  -1.256539330102857e+03   2.627325128823415e+00  -1.595937750372633e+00  -5.575442541659680e-02
2017-01-01T15:52:20.000  -2.187386634146505e+04  -3.602572002071209e+04  -1.257096540289635e+03   2.628488971932019e+00  -1.594022559843720e+00  -5.568760494234384e-02
2017-01-01T15:52:30.000  -2.184757563810272e+04  -3.604165066697886e+04  -1.257653082118735e+03   2.629651417398517e+00  -1.592106521797352e+00  -5.562075488253988e-02
2017-01-01T15:52:40.000  -2.182127331777880e+04  -3.605756214832781e+04  -1.258208955288836e+03   2.630812464593216e+00  -1.590189637271549e+00  -5.555387527340092e-02
2017-01-01T15:52:50.000  -2.179495939421240e+04  -3.607345445646047e+04  -1.258764159510256e+03   2.631972112910721e+00  -1.588271907265915e+00  -5.548696614980281e-02
2017-01-01T15:53:00.000  -2.176863388118888e+04  -3.608932758305200e+04  -1.259318694492389e+03   2.633130361743712e+00  -1.586353332784888e+00  -5.542002754678998e-02
2017-01-01T15:53:10.000  -2.174229679242600e+04  -3.610518151983282e+04  -1.259872559946562e+03   2.634287210488904e+00  -1.584433914827979e+00  -5.535305949923494e-02
